1 44415U 19022E   23084.51149417  .00038543  00000+0  84401-3 0  9993
2 44415  51.6371 190.6394 0010896 351.1026   8.9766 15.43674743203361
1 44415U 19022E   23085.28833727  .00034462  00000+0  75465-3 0  9998
2 44415  51.6370 186.8270 0010961 353.9068   6.1783 15.43728153203486
1 44415U 19022E   23085.80621857  .00030569  00000+0  67006-3 0  9991
2 44415  51.6369 184.2852 0011071 355.6769   4.4120 15.43758885203562
1 44415U 19022E   23086.45355448  .00031097  00000+0  68044-3 0  9993
2 44415  51.6371 181.1085 0011157 358.3285   1.7662 15.43800458203663
1 44415U 19022E   23086.64775191  .00030404  00000+0  66528-3 0  9991
2 44415  51.6365 180.1549 0011213 359.0243   1.0720 15.43812196203698
1 44415U 19022E   23087.48925582  .00031161  00000+0  68025-3 0  9990
2 44415  51.6361 176.0242 0011342   2.2167 357.8868 15.43866636203821
1 44415U 19022E   23087.61871545  .00031284  00000+0  68270-3 0  9992
2 44415  51.6359 175.3887 0011344   2.7437 357.3610 15.43874866203848
1 44415U 19022E   23088.52491169  .00034173  00000+0  74304-3 0  9998
2 44415  51.6357 170.9403 0011391   6.2015 353.9111 15.43936967203988
1 44415U 19022E   23089.49579502  .00036717  00000+0  79552-3 0  9999
2 44415  51.6358 166.1737 0011423   9.6389 350.4814 15.44006912204132
1 44415U 19022E   23090.20774725  .00039880  00000+0  86126-3 0  9993
2 44415  51.6362 162.6780 0011454  12.1899 347.9363 15.44063403204245
1 44415U 19022E   23091.43742594  .00030819  00000+0  66654-3 0  9995
2 44415  51.6368 156.6395 0011581  16.8558 343.2811 15.44146285204438
1 44415U 19022E   23092.53761049  .00031028  00000+0  66937-3 0  9990
2 44415  51.6361 151.2360 0011674  20.9495 339.1968 15.44216319204605
1 44415U 19022E   23092.86118486  .00026272  00000+0  56818-3 0  9999
2 44415  51.6363 149.6474 0011675  22.3095 337.8397 15.44233553204652
1 44415U 19022E   23093.50832204  .00027284  00000+0  58889-3 0  9996
2 44415  51.6358 146.4689 0011699  24.6796 335.4748 15.44271360204751
1 44415U 19022E   23093.83188429  .00029987  00000+0  64562-3 0  9992
2 44415  51.6357 144.8795 0011696  25.8059 334.3509 15.44293300204809
1 44415U 19022E   23094.34957540  .00031937  00000+0  68607-3 0  9999
2 44415  51.6356 142.3366 0011691  27.6366 332.5240 15.44326098204882
1 44415U 19022E   23094.73783669  .00029577  00000+0  63575-3 0  9997
2 44415  51.6356 140.4292 0011692  29.0456 331.1178 15.44348888204949
1 44415U 19022E   23095.12609186  .00028550  00000+0  61358-3 0  9999
2 44415  51.6357 138.5215 0011697  30.3480 329.8182 15.44372075205002
1 44415U 19022E   23095.38492562  .00029551  00000+0  63435-3 0  9995
2 44415  51.6358 137.2503 0011757  31.3026 328.8658 15.44387791205045
1 44415U 19022E   23095.83787849  .00028277  00000+0  60696-3 0  9990
2 44415  51.6358 135.0247 0011751  33.0112 327.1606 15.44413863205118
1 44415U 19022E   23096.29082375  .00026563  00000+0  57036-3 0  9993
2 44415  51.6359 132.7992 0011782  34.7684 325.4070 15.44438640205189
1 44415U 19022E   23096.35552952  .00026742  00000+0  57405-3 0  9992
2 44415  51.6358 132.4814 0011810  35.0361 325.1400 15.44442638205193
1 44415U 19022E   23096.61435146  .00025034  00000+0  53784-3 0  9995
2 44415  51.6356 131.2096 0011821  35.9135 324.2644 15.44456298205232
1 44415U 19022E   23097.45550590  .00027495  00000+0  58865-3 0  9997
2 44415  51.6350 127.0764 0011856  39.1988 320.9855 15.44504121205361
1 44415U 19022E   23098.36133654  .00025770  00000+0  55153-3 0  9997
2 44415  51.6348 122.6249 0011831  42.6567 317.5336 15.44551620205500
1 44415U 19022E   23099.07304001  .00026183  00000+0  55944-3 0  9999
2 44415  51.6349 119.1266 0011790  45.3384 314.8561 15.44591851205614
1 44415U 19022E   23099.26713787  .00027821  00000+0  59351-3 0  9991
2 44415  51.6350 118.1730 0011813  45.9146 314.2811 15.44603162205643
1 44415U 19022E   23099.59063116  .00024973  00000+0  53360-3 0  9990
2 44415  51.6351 116.5830 0011817  46.9479 313.2496 15.44619599205695
1 44415U 19022E   23100.23760629  .00028824  00000+0  61336-3 0  9998
2 44415  51.6356 113.4033 0011814  49.3957 310.8056 15.44658412205799
1 44415U 19022E   23100.75517373  .00032154  00000+0  68207-3 0  9996
2 44415  51.6363 110.8595 0011790  51.2491 308.9548 15.44694074205876
1 44415U 19022E   23101.20803623  .00026703  00000+0  56788-3 0  9997
2 44415  51.6364 108.6336 0011807  53.1628 307.0440 15.44719399205944
1 44415U 19022E   23102.17842831  .00026057  00000+0  55327-3 0  9998
2 44415  51.6362 103.8640 0011871  56.8265 303.3859 15.44778605206090
1 44415U 19022E   23102.30781117  .00026834  00000+0  56927-3 0  9992
2 44415  51.6364 103.2284 0011937  57.2361 302.9774 15.44787322206115
1 44415U 19022E   23103.27816063  .00031392  00000+0  66265-3 0  9999
2 44415  51.6362  98.4574 0011867  61.1325 299.0851 15.44849457206262
1 44415U 19022E   23104.37784181  .00036408  00000+0  76461-3 0  9998
2 44415  51.6360  93.0513 0011768  65.6339 294.5875 15.44926603206432
1 44415U 19022E   23105.54214584  .00039710  00000+0  83020-3 0  9991
2 44415  51.6360  87.3254 0011730  69.7602 290.4645 15.45019038206613
1 44415U 19022E   23105.67150850  .00039981  00000+0  83548-3 0  9995
2 44415  51.6360  86.6892 0011722  70.1546 290.0703 15.45029479206630
1 44415U 19022E   23106.31830884  .00038429  00000+0  80216-3 0  9994
2 44415  51.6361  83.5077 0011710  72.8293 287.3974 15.45080358206730
1 44415U 19022E   23107.15911721  .00038087  00000+0  79332-3 0  9994
2 44415  51.6354  79.3726 0011755  76.0528 284.1765 15.45146787206868
1 44415U 19022E   23107.35314492  .00038923  00000+0  81001-3 0  9993
2 44415  51.6353  78.4183 0011771  76.8261 283.4038 15.45162622206898
1 44415U 19022E   23108.32325566  .00038217  00000+0  79363-3 0  9999
2 44415  51.6357  73.6459 0011697  80.8893 279.3417 15.45235016207049
1 44415U 19022E   23109.29331929  .00042402  00000+0  87675-3 0  9992
2 44415  51.6365  68.8735 0011635  84.7502 275.4812 15.45313265207198
1 44415U 19022E   23110.26333432  .00035828  00000+0  74096-3 0  9999
2 44415  51.6373  64.1008 0011657  88.2737 271.9585 15.45386696207345
1 44415U 19022E   23111.55662005  .00030131  00000+0  62323-3 0  9995
2 44415  51.6372  57.7377 0011617  93.3868 266.8448 15.45471155207547
1 44415U 19022E   23111.87993069  .00032784  00000+0  67658-3 0  9999
2 44415  51.6370  56.1467 0011614  94.7387 265.4926 15.45493910207590
1 44415U 19022E   23112.20323670  .00034067  00000+0  70206-3 0  9991
2 44415  51.6364  54.5564 0011588  95.9097 264.3211 15.45515796207642
1 44415U 19022E   23113.36709971  .00031338  00000+0  64508-3 0  9997
2 44415  51.6371  48.8286 0011494 100.4898 259.7385 15.45593010207829
1 44415U 19022E   23114.01366420  .00071559  00000+0  14505-2 0  9998
2 44415  51.6375  45.6465 0011461 103.0001 257.2266 15.45666943207924
1 44415U 19022E   23115.04810422  .00041071  00000+0  83695-3 0  9991
2 44415  51.6385  40.5536 0011386 106.7549 253.4688 15.45757491208084
1 44415U 19022E   23115.37135530  .00031903  00000+0  65240-3 0  9996
2 44415  51.6388  38.9619 0011431 107.3239 252.8999 15.45777385208132
1 44415U 19022E   23116.08249597  .00026780  00000+0  54880-3 0  9999
2 44415  51.6386  35.4612 0011440 110.2813 249.9404 15.45810869208241
1 44415U 19022E   23117.11685319  .00027834  00000+0  56895-3 0  9999
2 44415  51.6382  30.3704 0011427 115.2015 245.0158 15.45863055208403
1 44415U 19022E   23117.37543642  .00027946  00000+0  57092-3 0  9993
2 44415  51.6376  29.0962 0011355 115.8911 244.3248 15.45878235208440
1 44415U 19022E   23118.34510002  .00028033  00000+0  57152-3 0  9990
2 44415  51.6376  24.3214 0011291 119.6425 240.5688 15.45937133208594
1 44415U 19022E   23119.31472676  .00026450  00000+0  53882-3 0  9999
2 44415  51.6379  19.5468 0011214 123.1421 237.0644 15.45994806208745
1 44415U 19022E   23120.09040232  .00027524  00000+0  55937-3 0  9991
2 44415  51.6378  15.7269 0011199 125.9988 234.2039 15.46040863208867
1 44415U 19022E   23120.99533012  .00024936  00000+0  50697-3 0  9995
2 44415  51.6376  11.2700 0011181 129.6293 230.5683 15.46087304209009
1 44415U 19022E   23121.83559635  .00026300  00000+0  53335-3 0  9997
2 44415  51.6377   7.1312 0011148 133.1420 227.0501 15.46129867209133
1 44415U 19022E   23121.90023127  .00026788  00000+0  54299-3 0  9997
2 44415  51.6377   6.8130 0011132 133.3396 226.8521 15.46133287209145
1 44415U 19022E   23122.22340332  .00029817  00000+0  60276-3 0  9991
2 44415  51.6381   5.2213 0011021 134.1696 226.0198 15.46154089209194
1 44415U 19022E   23122.86973588  .00027625  00000+0  55859-3 0  9992
2 44415  51.6383   2.0375 0010987 136.6556 223.5297 15.46188716209299
1 44415U 19022E   23123.19289582  .00024358  00000+0  49349-3 0  9990
2 44415  51.6382   0.4455 0010976 138.2471 221.9355 15.46205845209347
1 44415U 19022E   23123.38679035  .00024163  00000+0  48945-3 0  9992
2 44415  51.6386 359.4901 0010990 139.1306 221.0507 15.46216050209370
1 44415U 19022E   23123.90383635  .00025459  00000+0  51466-3 0  9999
2 44415  51.6380 356.9436 0010936 140.7348 219.4434 15.46244231209454
1 44415U 19022E   23124.35624319  .00024180  00000+0  48891-3 0  9994
2 44415  51.6377 354.7145 0010912 142.5418 217.6332 15.46269196209527
1 44415U 19022E   23124.87327127  .00025978  00000+0  52398-3 0  9991
2 44415  51.6372 352.1676 0010877 144.3642 215.8073 15.46297897209602
1 44415U 19022E   23125.77804755  .00026200  00000+0  52752-3 0  9991
2 44415  51.6366 347.7094 0010822 148.1068 212.0577 15.46346049209740
1 44415U 19022E   23125.90729878  .00029197  00000+0  58645-3 0  9993
2 44415  51.6365 347.0727 0010784 148.6206 211.5427 15.46355356209762
1 44415U 19022E   23125.97192430  .00029676  00000+0  59582-3 0  9991
2 44415  51.6365 346.7544 0010768 148.8975 211.2652 15.46359072209779
1 44415U 19022E   23127.00590735  .00035870  00000+0  71609-3 0  9994
2 44415  51.6365 341.6589 0010657 153.0581 207.0961 15.46429163209933
